COSMO-SKYMED 1          
1 31598U 07023A   26094.27110876  .00006832  00000+0  60265-3 0  9991
2 31598  97.8869 285.5122 0001576  99.6691 260.4708 14.96737166 18735
TERRASAR-X              
1 31698U 07026A   26093.49709094  .00002572  00000+0  12564-3 0  9990
2 31698  97.4463 102.2666 0001777  89.0231 271.1207 15.19147830 41880
WORLDVIEW-1 (WV-1)      
1 32060U 07041A   26094.24388625  .00012539  00000+0  51920-3 0  9991
2 32060  97.3852 215.0339 0001530 345.0717  15.0475 15.24062439 31615
YAOGAN-3                
1 32289U 07055A   26094.28791303  .00003209  00000+0  33433-3 0  9997
2 32289  97.8226 124.8851 0001286  87.6150 272.5215 14.90500792994859
COSMO-SKYMED 2          
1 32376U 07059A   26094.30452183  .00000829  00000+0  11071-3 0  9990
2 32376  97.8880 278.9712 0001282  88.9847 271.1514 14.82160058991056
RADARSAT-2              
1 32382U 07061A   26094.28850910  .00000270  00000+0  12175-3 0  9993
2 32382  98.5806 102.2693 0001256  83.7295 276.4031 14.29981734955399
CARTOSAT-2A             
1 32783U 08021A   26094.31245819  .00001906  00000+0  26360-3 0  9993
2 32783  97.7719 145.5171 0011749 359.4024   0.7172 14.79151589967883
HUANJING 1A (HJ-1A)     
1 33320U 08041A   26094.26151635  .00005692  00000+0  69021-3 0  9996
2 33320  97.6659  82.9831 0019860  26.0617 334.1593 14.83819688947444
HUANJING 1B (HJ-1B)     
1 33321U 08041B   26094.26567499  .00002284  00000+0  28264-3 0  9994
2 33321  97.6503  86.3769 0038012  66.9893 293.5324 14.83178582947452
GEOEYE 1                
1 33331U 08042A   26094.23547533  .00000913  00000+0  18063-3 0  9993
2 33331  98.1268 169.0959 0002974 303.5064  56.5855 14.64656777939324
THEOS                   
1 33396U 08049A   26094.27180367  .00000230  00000+0  12788-3 0  9993
2 33396  98.5648 153.9312 0001159  98.7787 261.3521 14.20123056907473
COSMO-SKYMED 3          
1 33412U 08054A   26094.22757382  .00005819  00000+0  39734-3 0  9998
2 33412  97.8365 311.5564 0016325 153.1087 207.0989 15.06476719945807
YAOGAN-4                
1 33446U 08061A   26094.22409955  .00002455  00000+0  30787-3 0  9995
2 33446  97.9273  28.3055 0013290 316.3724  43.6438 14.83059750934706
GOSAT (IBUKI)           
1 33492U 09002A   26094.29717498  .00001348  00000+0  24619-3 0  9990
2 33492  98.0792 206.3396 0001042  97.4591 262.6732 14.67547322920627
DEIMOS-1                
1 35681U 09041A   26094.32078859  .00000725  00000+0  11444-3 0  9990
2 35681  97.7303 254.7875 0002722  80.0181 280.1336 14.75156781895991
DUBAISAT-1              
1 35682U 09041B   26094.28447721  .00001894  00000+0  28900-3 0  9997
2 35682  97.9924 228.4064 0009383 312.9512  47.0909 14.74982814894208
