[{"OBJECT_NAME":"COSMO-SKYMED 1","OBJECT_ID":"2007-023A","EPOCH":"2026-04-04T06:30:23.796864","MEAN_MOTION":14.96737166,"ECCENTRICITY":0.00015764,"INCLINATION":97.8869,"RA_OF_ASC_NODE":285.5122,"ARG_OF_PERICENTER":99.6691,"MEAN_ANOMALY":260.4708,"EPHEMERIS_TYPE":0,"CLASSIFICATION_TYPE":"U","NORAD_CAT_ID":31598,"ELEMENT_SET_NO":999,"REV_AT_EPOCH":1873,"BSTAR":0.00060265283,"MEAN_MOTION_DOT":6.832e-5,"MEAN_MOTION_DDOT":0},{"OBJECT_NAME":"TERRASAR-X","OBJECT_ID":"2007-026A","EPOCH":"2026-04-03T11:55:48.657216","MEAN_MOTION":15.1914783,"ECCENTRICITY":0.0001777,"INCLINATION":97.4463,"RA_OF_ASC_NODE":102.2666,"ARG_OF_PERICENTER":89.0231,"MEAN_ANOMALY":271.1207,"EPHEMERIS_TYPE":0,"CLASSIFICATION_TYPE":"U","NORAD_CAT_ID":31698,"ELEMENT_SET_NO":999,"REV_AT_EPOCH":4188,"BSTAR":0.00012564,"MEAN_MOTION_DOT":2.572e-5,"MEAN_MOTION_DDOT":0},{"OBJECT_NAME":"WORLDVIEW-1 (WV-1)","OBJECT_ID":"2007-041A","EPOCH":"2026-04-04T05:51:11.772000","MEAN_MOTION":15.24062439,"ECCENTRICITY":0.00015301,"INCLINATION":97.3852,"RA_OF_ASC_NODE":215.0339,"ARG_OF_PERICENTER":345.0717,"MEAN_ANOMALY":15.0475,"EPHEMERIS_TYPE":0,"CLASSIFICATION_TYPE":"U","NORAD_CAT_ID":32060,"ELEMENT_SET_NO":999,"REV_AT_EPOCH":3161,"BSTAR":0.00051920182,"MEAN_MOTION_DOT":0.00012539,"MEAN_MOTION_DDOT":0},{"OBJECT_NAME":"YAOGAN-3","OBJECT_ID":"2007-055A","EPOCH":"2026-04-04T06:54:35.685792","MEAN_MOTION":14.90500792,"ECCENTRICITY":0.00012865,"INCLINATION":97.8226,"RA_OF_ASC_NODE":124.8851,"ARG_OF_PERICENTER":87.615,"MEAN_ANOMALY":272.5215,"EPHEMERIS_TYPE":0,"CLASSIFICATION_TYPE":"U","NORAD_CAT_ID":32289,"ELEMENT_SET_NO":999,"REV_AT_EPOCH":99485,"BSTAR":0.00033433209,"MEAN_MOTION_DOT":3.209e-5,"MEAN_MOTION_DDOT":0},{"OBJECT_NAME":"COSMO-SKYMED 2","OBJECT_ID":"2007-059A","EPOCH":"2026-04-04T07:18:30.686112","MEAN_MOTION":14.82160058,"ECCENTRICITY":0.00012823,"INCLINATION":97.888,"RA_OF_ASC_NODE":278.9712,"ARG_OF_PERICENTER":88.9847,"MEAN_ANOMALY":271.1514,"EPHEMERIS_TYPE":0,"CLASSIFICATION_TYPE":"U","NORAD_CAT_ID":32376,"ELEMENT_SET_NO":999,"REV_AT_EPOCH":99105,"BSTAR":0.00011071246,"MEAN_MOTION_DOT":8.29e-6,"MEAN_MOTION_DDOT":0},{"OBJECT_NAME":"RADARSAT-2","OBJECT_ID":"2007-061A","EPOCH":"2026-04-04T06:55:27.186240","MEAN_MOTION":14.29981734,"ECCENTRICITY":0.00012564,"INCLINATION":98.5806,"RA_OF_ASC_NODE":102.2693,"ARG_OF_PERICENTER":83.7295,"MEAN_ANOMALY":276.4031,"EPHEMERIS_TYPE":0,"CLASSIFICATION_TYPE":"U","NORAD_CAT_ID":32382,"ELEMENT_SET_NO":999,"REV_AT_EPOCH":95539,"BSTAR":0.00012174885,"MEAN_MOTION_DOT":2.7e-6,"MEAN_MOTION_DDOT":0},{"OBJECT_NAME":"CARTOSAT-2A","OBJECT_ID":"2008-021A","EPOCH":"2026-04-04T07:29:56.387616","MEAN_MOTION":14.79151589,"ECCENTRICITY":0.00117492,"INCLINATION":97.7719,"RA_OF_ASC_NODE":145.5171,"ARG_OF_PERICENTER":359.4024,"MEAN_ANOMALY":0.7172,"EPHEMERIS_TYPE":0,"CLASSIFICATION_TYPE":"U","NORAD_CAT_ID":32783,"ELEMENT_SET_NO":999,"REV_AT_EPOCH":96788,"BSTAR":0.00026359608,"MEAN_MOTION_DOT":1.906e-5,"MEAN_MOTION_DDOT":0},{"OBJECT_NAME":"HUANJING 1A (HJ-1A)","OBJECT_ID":"2008-041A","EPOCH":"2026-04-04T06:16:35.012640","MEAN_MOTION":14.83819688,"ECCENTRICITY":0.00198608,"INCLINATION":97.6659,"RA_OF_ASC_NODE":82.9831,"ARG_OF_PERICENTER":26.0617,"MEAN_ANOMALY":334.1593,"EPHEMERIS_TYPE":0,"CLASSIFICATION_TYPE":"U","NORAD_CAT_ID":33320,"ELEMENT_SET_NO":999,"REV_AT_EPOCH":94744,"BSTAR":0.00069021411,"MEAN_MOTION_DOT":5.692e-5,"MEAN_MOTION_DDOT":0},{"OBJECT_NAME":"HUANJING 1B (HJ-1B)","OBJECT_ID":"2008-041B","EPOCH":"2026-04-04T06:22:34.319136","MEAN_MOTION":14.83178582,"ECCENTRICITY":0.00380124,"INCLINATION":97.6503,"RA_OF_ASC_NODE":86.3769,"ARG_OF_PERICENTER":66.9893,"MEAN_ANOMALY":293.5324,"EPHEMERIS_TYPE":0,"CLASSIFICATION_TYPE":"U","NORAD_CAT_ID":33321,"ELEMENT_SET_NO":999,"REV_AT_EPOCH":94745,"BSTAR":0.00028264353,"MEAN_MOTION_DOT":2.284e-5,"MEAN_MOTION_DDOT":0},{"OBJECT_NAME":"GEOEYE 1","OBJECT_ID":"2008-042A","EPOCH":"2026-04-04T05:39:05.068512","MEAN_MOTION":14.64656777,"ECCENTRICITY":0.00029741,"INCLINATION":98.1268,"RA_OF_ASC_NODE":169.0959,"ARG_OF_PERICENTER":303.5064,"MEAN_ANOMALY":56.5855,"EPHEMERIS_TYPE":0,"CLASSIFICATION_TYPE":"U","NORAD_CAT_ID":33331,"ELEMENT_SET_NO":999,"REV_AT_EPOCH":93932,"BSTAR":0.00018063424,"MEAN_MOTION_DOT":9.13e-6,"MEAN_MOTION_DDOT":0},{"OBJECT_NAME":"THEOS","OBJECT_ID":"2008-049A","EPOCH":"2026-04-04T06:31:23.837088","MEAN_MOTION":14.20123056,"ECCENTRICITY":0.00011597,"INCLINATION":98.5648,"RA_OF_ASC_NODE":153.9312,"ARG_OF_PERICENTER":98.7787,"MEAN_ANOMALY":261.3521,"EPHEMERIS_TYPE":0,"CLASSIFICATION_TYPE":"U","NORAD_CAT_ID":33396,"ELEMENT_SET_NO":999,"REV_AT_EPOCH":90747,"BSTAR":0.00012788147,"MEAN_MOTION_DOT":2.3e-6,"MEAN_MOTION_DDOT":0},{"OBJECT_NAME":"COSMO-SKYMED 3","OBJECT_ID":"2008-054A","EPOCH":"2026-04-04T05:27:42.378048","MEAN_MOTION":15.06476719,"ECCENTRICITY":0.00163259,"INCLINATION":97.8365,"RA_OF_ASC_NODE":311.5564,"ARG_OF_PERICENTER":153.1087,"MEAN_ANOMALY":207.0989,"EPHEMERIS_TYPE":0,"CLASSIFICATION_TYPE":"U","NORAD_CAT_ID":33412,"ELEMENT_SET_NO":999,"REV_AT_EPOCH":94580,"BSTAR":0.00039734106,"MEAN_MOTION_DOT":5.819e-5,"MEAN_MOTION_DDOT":0},{"OBJECT_NAME":"YAOGAN-4","OBJECT_ID":"2008-061A","EPOCH":"2026-04-04T05:22:42.201120","MEAN_MOTION":14.8305975,"ECCENTRICITY":0.00132904,"INCLINATION":97.9273,"RA_OF_ASC_NODE":28.3055,"ARG_OF_PERICENTER":316.3724,"MEAN_ANOMALY":43.6438,"EPHEMERIS_TYPE":0,"CLASSIFICATION_TYPE":"U","NORAD_CAT_ID":33446,"ELEMENT_SET_NO":999,"REV_AT_EPOCH":93470,"BSTAR":0.00030786937,"MEAN_MOTION_DOT":2.455e-5,"MEAN_MOTION_DDOT":0},{"OBJECT_NAME":"GOSAT (IBUKI)","OBJECT_ID":"2009-002A","EPOCH":"2026-04-04T07:07:55.918272","MEAN_MOTION":14.67547322,"ECCENTRICITY":0.00010424,"INCLINATION":98.0792,"RA_OF_ASC_NODE":206.3396,"ARG_OF_PERICENTER":97.4591,"MEAN_ANOMALY":262.6732,"EPHEMERIS_TYPE":0,"CLASSIFICATION_TYPE":"U","NORAD_CAT_ID":33492,"ELEMENT_SET_NO":999,"REV_AT_EPOCH":92062,"BSTAR":0.00024618822,"MEAN_MOTION_DOT":1.348e-5,"MEAN_MOTION_DDOT":0},{"OBJECT_NAME":"DEIMOS-1","OBJECT_ID":"2009-041A","EPOCH":"2026-04-04T07:41:56.134176","MEAN_MOTION":14.75156781,"ECCENTRICITY":0.0002722,"INCLINATION":97.7303,"RA_OF_ASC_NODE":254.7875,"ARG_OF_PERICENTER":80.0181,"MEAN_ANOMALY":280.1336,"EPHEMERIS_TYPE":0,"CLASSIFICATION_TYPE":"U","NORAD_CAT_ID":35681,"ELEMENT_SET_NO":999,"REV_AT_EPOCH":89599,"BSTAR":0.00011443613,"MEAN_MOTION_DOT":7.25e-6,"MEAN_MOTION_DDOT":0},{"OBJECT_NAME":"DUBAISAT-1","OBJECT_ID":"2009-041B","EPOCH":"2026-04-04T06:49:38.830944","MEAN_MOTION":14.74982814,"ECCENTRICITY":0.00093831,"INCLINATION":97.9924,"RA_OF_ASC_NODE":228.4064,"ARG_OF_PERICENTER":312.9512,"MEAN_ANOMALY":47.0909,"EPHEMERIS_TYPE":0,"CLASSIFICATION_TYPE":"U","NORAD_CAT_ID":35682,"ELEMENT_SET_NO":999,"REV_AT_EPOCH":89420,"BSTAR":0.00028899678,"MEAN_MOTION_DOT":1.894e-5,"MEAN_MOTION_DDOT":0}]
